[{"Pincode":560001,"divisionname":"Bengaluru East","regionname":"Bangalore HQ","circlename":"Karnataka","taluk":"Bangalore North","districtname":"Bengaluru","statename":"KARNATAKA"},{"Pincode":560002,"divisionname":"Bengaluru South","regionname":"Bangalore HQ","circlename":"Karnataka","taluk":"Bangalore South","districtname":"Bengaluru","statename":"KARNATAKA"},{"Pincode":560003,"divisionname":"Bengaluru West","regionname":"Bangalore HQ","circlename":"Karnataka","taluk":"Bangalore North","districtname":"Bengaluru","statename":"KARNATAKA"},{"Pincode":560004,"divisionname":"Bengaluru South","regionname":"Bangalore HQ","circlename":"Karnataka","taluk":"Bangalore South","districtname":"Bengaluru","statename":"KARNATAKA"},{"Pincode":560005,"divisionname":"Bengaluru East","regionname":"Bangalore HQ","circlename":"Karnataka","taluk":"Bangalore North","districtname":"Bengaluru","statename":"KARNATAKA"},{"Pincode":560006,"divisionname":"Bengaluru East","regionname":"Bangalore HQ","circlename":"Karnataka","taluk":"Bangalore North","districtname":"Bengaluru","statename":"KARNATAKA"},{"Pincode":560007,"divisionname":"Bengaluru East","regionname":"Bangalore HQ","circlename":"Karnataka","taluk":"Bangalore North","districtname":"Bengaluru","statename":"KARNATAKA"},{"Pincode":560008,"divisionname":"Bengaluru East","regionname":"Bangalore HQ","circlename":"Karnataka","taluk":"Bangalore North","districtname":"Bengaluru","statename":"KARNATAKA"},{"Pincode":560009,"divisionname":"Bengaluru West","regionname":"Bangalore HQ","circlename":"Karnataka","taluk":"Bangalore North","districtname":"Bengaluru","statename":"KARNATAKA"},{"Pincode":560010,"divisionname":"Bengaluru West","regionname":"Bangalore HQ","circlename":"Karnataka","taluk":"Bangalore North","districtname":"Bengaluru","statename":"KARNATAKA"},{"Pincode":560011,"divisionname":"Bengaluru South","regionname":"Bangalore HQ","circlename":"Karnataka","taluk":"Bangalore South","districtname":"Bengaluru","statename":"KARNATAKA"},{"Pincode":560012,"divisionname":"Bengaluru West","regionname":"Bangalore HQ","circlename":"Karnataka","taluk":"Bangalore North","districtname":"Bengaluru","statename":"KARNATAKA"},{"Pincode":560013,"divisionname":"Bengaluru West","regionname":"Bangalore HQ","circlename":"Karnataka","taluk":"Bangalore North","districtname":"Bengaluru","statename":"KARNATAKA"},{"Pincode":560014,"divisionname":"Bengaluru West","regionname":"Bangalore HQ","circlename":"Karnataka","taluk":"Bangalore North","districtname":"Bengaluru","statename":"KARNATAKA"},{"Pincode":560015,"divisionname":"Bengaluru West","regionname":"Bangalore HQ","circlename":"Karnataka","taluk":"Bangalore North","districtname":"Bengaluru","statename":"KARNATAKA"},{"Pincode":560016,"divisionname":"Bengaluru East","regionname":"Bangalore HQ","circlename":"Karnataka","taluk":"Bangalore North","districtname":"Bengaluru","statename":"KARNATAKA"},{"Pincode":560017,"divisionname":"Bengaluru East","regionname":"Bangalore HQ","circlename":"Karnataka","taluk":"Bangalore North","districtname":"Bengaluru","statename":"KARNATAKA"},{"Pincode":560018,"divisionname":"Bengaluru South","regionname":"Bangalore HQ","circlename":"Karnataka","taluk":"Bangalore South","districtname":"Bengaluru","statename":"KARNATAKA"},{"Pincode":560019,"divisionname":"Bengaluru South","regionname":"Bangalore HQ","circlename":"Karnataka","taluk":"Bengaluru","districtname":"Bengaluru","statename":"KARNATAKA"},{"Pincode":560020,"divisionname":"Bengaluru West","regionname":"Bangalore HQ","circlename":"Karnataka","taluk":"Bangalore North","districtname":"Bengaluru","statename":"KARNATAKA"},{"Pincode":560021,"divisionname":"Bengaluru West","regionname":"Bangalore HQ","circlename":"Karnataka","taluk":"Bangalore North","districtname":"Bengaluru","statename":"KARNATAKA"},{"Pincode":560022,"divisionname":"Bengaluru West","regionname":"Bangalore HQ","circlename":"Karnataka","taluk":"Bangalore North","districtname":"Bengaluru","statename":"KARNATAKA"},{"Pincode":560023,"divisionname":"Bengaluru West","regionname":"Bangalore HQ","circlename":"Karnataka","taluk":"Bangalore North","districtname":"Bengaluru","statename":"KARNATAKA"},{"Pincode":560024,"divisionname":"Bengaluru East","regionname":"Bangalore HQ","circlename":"Karnataka","taluk":"Bangalore North","districtname":"Bengaluru","statename":"KARNATAKA"},{"Pincode":560025,"divisionname":"Bengaluru East","regionname":"Bangalore HQ","circlename":"Karnataka","taluk":"Bangalore North","districtname":"Bengaluru","statename":"KARNATAKA"},{"Pincode":560026,"divisionname":"Bengaluru South","regionname":"Bangalore HQ","circlename":"Karnataka","taluk":"Bangalore South","districtname":"Bengaluru","statename":"KARNATAKA"},{"Pincode":560027,"divisionname":"Bengaluru South","regionname":"Bangalore HQ","circlename":"Karnataka","taluk":"Bangalore South","districtname":"Bengaluru","statename":"KARNATAKA"},{"Pincode":560029,"divisionname":"Bengaluru South","regionname":"Bangalore HQ","circlename":"Karnataka","taluk":"Bangalore South","districtname":"Bengaluru","statename":"KARNATAKA"},{"Pincode":560030,"divisionname":"Bengaluru South","regionname":"Bangalore HQ","circlename":"Karnataka","taluk":"Bangalore South","districtname":"Bengaluru","statename":"KARNATAKA"},{"Pincode":560031,"divisionname":"Bengaluru South","regionname":"Bangalore HQ","circlename":"Karnataka","taluk":"Bangalore South","districtname":"Bengaluru","statename":"KARNATAKA"},{"Pincode":560032,"divisionname":"Bengaluru East","regionname":"Bangalore HQ","circlename":"Karnataka","taluk":"Bangalore North","districtname":"Bengaluru","statename":"KARNATAKA"},{"Pincode":560033,"divisionname":"Bengaluru East","regionname":"Bangalore HQ","circlename":"Karnataka","taluk":"Bangalore North","districtname":"Bengaluru","statename":"KARNATAKA"},{"Pincode":560034,"divisionname":"Bengaluru South","regionname":"Bangalore HQ","circlename":"Karnataka","taluk":"Bangalore South","districtname":"Bengaluru","statename":"KARNATAKA"},{"Pincode":560035,"divisionname":"Bengaluru South","regionname":"Bangalore HQ","circlename":"Karnataka","taluk":"Bangalore South","districtname":"Bengaluru","statename":"KARNATAKA"},{"Pincode":560036,"divisionname":"Bengaluru East","regionname":"Bangalore HQ","circlename":"Karnataka","taluk":"Bangalore North","districtname":"Bengaluru","statename":"KARNATAKA"},{"Pincode":560037,"divisionname":"Bengaluru East","regionname":"Bangalore HQ","circlename":"Karnataka","taluk":"Bangalore North","districtname":"Bengaluru","statename":"KARNATAKA"},{"Pincode":560038,"divisionname":"Bengaluru East","regionname":"Bangalore HQ","circlename":"Karnataka","taluk":"Bangalore North","districtname":"Bengaluru","statename":"KARNATAKA"},{"Pincode":560039,"divisionname":"Bengaluru East","regionname":"Bangalore HQ","circlename":"Karnataka","taluk":"Bangalore North","districtname":"Bengaluru","statename":"KARNATAKA"},{"Pincode":560040,"divisionname":"Bengaluru West","regionname":"Bangalore HQ","circlename":"Karnataka","taluk":"Bangalore North","districtname":"Bengaluru","statename":"KARNATAKA"},{"Pincode":560041,"divisionname":"Bengaluru South","regionname":"Bangalore HQ","circlename":"Karnataka","taluk":"Bangalore South","districtname":"Bengaluru","statename":"KARNATAKA"},{"Pincode":560042,"divisionname":"Bengaluru East","regionname":"Bangalore HQ","circlename":"Karnataka","taluk":"Bangalore North","districtname":"Bengaluru","statename":"KARNATAKA"},{"Pincode":560043,"divisionname":"Bengaluru East","regionname":"Bangalore HQ","circlename":"Karnataka","taluk":"Bangalore North","districtname":"Bengaluru","statename":"KARNATAKA"},{"Pincode":560044,"divisionname":"Bengaluru East","regionname":"Bangalore HQ","circlename":"Karnataka","taluk":"Bangalore North","districtname":"Bengaluru","statename":"KARNATAKA"},{"Pincode":560045,"divisionname":"Bengaluru East","regionname":"Bangalore HQ","circlename":"Karnataka","taluk":"Bangalore North","districtname":"Bengaluru","statename":"KARNATAKA"},{"Pincode":560046,"divisionname":"Bengaluru East","regionname":"Bangalore HQ","circlename":"Karnataka","taluk":"Bangalore North","districtname":"Bengaluru","statename":"KARNATAKA"},{"Pincode":560047,"divisionname":"Bengaluru East","regionname":"Bangalore HQ","circlename":"Karnataka","taluk":"Bangalore North","districtname":"Bengaluru","statename":"KARNATAKA"},{"Pincode":560048,"divisionname":"Bengaluru East","regionname":"Bangalore HQ","circlename":"Karnataka","taluk":"Bangalore North","districtname":"Bengaluru","statename":"KARNATAKA"},{"Pincode":560049,"divisionname":"Bengaluru East","regionname":"Bangalore HQ","circlename":"Karnataka","taluk":"Bangalore North","districtname":"Bengaluru","statename":"KARNATAKA"},{"Pincode":560050,"divisionname":"Bengaluru South","regionname":"Bangalore HQ","circlename":"Karnataka","taluk":"Bangalore South","districtname":"Bengaluru","statename":"KARNATAKA"},{"Pincode":560051,"divisionname":"Bengaluru East","regionname":"Bangalore HQ","circlename":"Karnataka","taluk":"Bangalore North","districtname":"Bengaluru","statename":"KARNATAKA"},{"Pincode":560053,"divisionname":"Bengaluru South","regionname":"Bangalore HQ","circlename":"Karnataka","taluk":"Bangalore South","districtname":"Bengaluru","statename":"KARNATAKA"},{"Pincode":560054,"divisionname":"Bengaluru West","regionname":"Bangalore HQ","circlename":"Karnataka","taluk":"Bangalore North","districtname":"Bengaluru","statename":"KARNATAKA"},{"Pincode":560055,"divisionname":"Bengaluru West","regionname":"Bangalore HQ","circlename":"Karnataka","taluk":"Bangalore North","districtname":"Bengaluru","statename":"KARNATAKA"},{"Pincode":560056,"divisionname":"Bengaluru South","regionname":"Bangalore HQ","circlename":"Karnataka","taluk":"Bangalore South","districtname":"Bengaluru","statename":"KARNATAKA"},{"Pincode":560057,"divisionname":"Bengaluru West","regionname":"Bangalore HQ","circlename":"Karnataka","taluk":"Bangalore North","districtname":"Bengaluru","statename":"KARNATAKA"},{"Pincode":560058,"divisionname":"Bengaluru West","regionname":"Bangalore HQ","circlename":"Karnataka","taluk":"Bangalore North","districtname":"Bengaluru","statename":"KARNATAKA"},{"Pincode":560059,"divisionname":"Bengaluru South","regionname":"Bangalore HQ","circlename":"Karnataka","taluk":"Bangalore South","districtname":"Bengaluru","statename":"KARNATAKA"},{"Pincode":560060,"divisionname":"Bengaluru South","regionname":"Bangalore HQ","circlename":"Karnataka","taluk":"Bangalore South","districtname":"Bengaluru","statename":"KARNATAKA"},{"Pincode":560061,"divisionname":"Bengaluru South","regionname":"Bangalore HQ","circlename":"Karnataka","taluk":"Bangalore South","districtname":"Bengaluru","statename":"KARNATAKA"},{"Pincode":560062,"divisionname":"Bengaluru South","regionname":"Bangalore HQ","circlename":"Karnataka","taluk":"Bangalore South","districtname":"Bengaluru","statename":"KARNATAKA"},{"Pincode":560062,"divisionname":"Bengaluru South","regionname":"Bangalore HQ","circlename":"Karnataka","taluk":"Bangalore","districtname":"Bengaluru","statename":"KARNATAKA"},{"Pincode":560063,"divisionname":"Bengaluru East","regionname":"Bangalore HQ","circlename":"Karnataka","taluk":"Bangalore North","districtname":"Bengaluru","statename":"KARNATAKA"},{"Pincode":560064,"divisionname":"Bengaluru East","regionname":"Bangalore HQ","circlename":"Karnataka","taluk":"Bangalore North","districtname":"Bengaluru","statename":"KARNATAKA"},{"Pincode":560065,"divisionname":"Bengaluru East","regionname":"Bangalore HQ","circlename":"Karnataka","taluk":"Bangalore North","districtname":"Bengaluru","statename":"KARNATAKA"},{"Pincode":560066,"divisionname":"Bengaluru East","regionname":"Bangalore HQ","circlename":"Karnataka","taluk":"Bangalore South","districtname":"Bengaluru","statename":"KARNATAKA"},{"Pincode":560067,"divisionname":"Bengaluru East","regionname":"Bangalore HQ","circlename":"Karnataka","taluk":"Bangalore South","districtname":"Bengaluru","statename":"KARNATAKA"},{"Pincode":560068,"divisionname":"Bengaluru South","regionname":"Bangalore HQ","circlename":"Karnataka","taluk":"Bangalore South","districtname":"Bengaluru","statename":"KARNATAKA"},{"Pincode":560070,"divisionname":"Bengaluru South","regionname":"Bangalore HQ","circlename":"Karnataka","taluk":"Bangalore South","districtname":"Bengaluru","statename":"KARNATAKA"},{"Pincode":560071,"divisionname":"Bengaluru East","regionname":"Bangalore HQ","circlename":"Karnataka","taluk":"Bangalore North","districtname":"Bengaluru","statename":"KARNATAKA"},{"Pincode":560072,"divisionname":"Bengaluru West","regionname":"Bangalore HQ","circlename":"Karnataka","taluk":"Bangalore North","districtname":"Bengaluru","statename":"KARNATAKA"},{"Pincode":560073,"divisionname":"Bengaluru West","regionname":"Bangalore HQ","circlename":"Karnataka","taluk":"Bangalore North","districtname":"Bengaluru","statename":"KARNATAKA"},{"Pincode":560074,"divisionname":"Bengaluru South","regionname":"Bangalore HQ","circlename":"Karnataka","taluk":"Bangalore South","districtname":"Bengaluru","statename":"KARNATAKA"},{"Pincode":560075,"divisionname":"Bengaluru East","regionname":"Bangalore HQ","circlename":"Karnataka","taluk":"Bangalore North","districtname":"Bengaluru","statename":"KARNATAKA"},{"Pincode":560076,"divisionname":"Bengaluru South","regionname":"Bangalore HQ","circlename":"Karnataka","taluk":"Bangalore South","districtname":"Bengaluru","statename":"KARNATAKA"},{"Pincode":560077,"divisionname":"Bengaluru East","regionname":"Bangalore HQ","circlename":"Karnataka","taluk":"Bangalore North","districtname":"Bengaluru","statename":"KARNATAKA"},{"Pincode":560078,"divisionname":"Bengaluru South","regionname":"Bangalore HQ","circlename":"Karnataka","taluk":"Bangalore South","districtname":"Bengaluru","statename":"KARNATAKA"},{"Pincode":560079,"divisionname":"Bengaluru West","regionname":"Bangalore HQ","circlename":"Karnataka","taluk":"Bangalore North","districtname":"Bengaluru","statename":"KARNATAKA"},{"Pincode":560080,"divisionname":"Bengaluru East","regionname":"Bangalore HQ","circlename":"Karnataka","taluk":"Bangalore North","districtname":"Bengaluru","statename":"KARNATAKA"},{"Pincode":560081,"divisionname":"Bengaluru South","regionname":"Bangalore HQ","circlename":"Karnataka","taluk":"Bangalore","districtname":"Bengaluru","statename":"KARNATAKA"},{"Pincode":560082,"divisionname":"Bengaluru South","regionname":"Bangalore HQ","circlename":"Karnataka","taluk":"Bangalore South","districtname":"Bengaluru","statename":"KARNATAKA"},{"Pincode":560083,"divisionname":"Bengaluru South","regionname":"Bangalore HQ","circlename":"Karnataka","taluk":"Bangalore South","districtname":"Bengaluru","statename":"KARNATAKA"},{"Pincode":560083,"divisionname":"Bengaluru South","regionname":"Bangalore HQ","circlename":"Karnataka","taluk":"Anekal","districtname":"Bengaluru","statename":"KARNATAKA"},{"Pincode":560084,"divisionname":"Bengaluru East","regionname":"Bangalore HQ","circlename":"Karnataka","taluk":"Bangalore North","districtname":"Bengaluru","statename":"KARNATAKA"},{"Pincode":560085,"divisionname":"Bengaluru South","regionname":"Bangalore HQ","circlename":"Karnataka","taluk":"Bangalore South","districtname":"Bengaluru","statename":"KARNATAKA"},{"Pincode":560086,"divisionname":"Bengaluru West","regionname":"Bangalore HQ","circlename":"Karnataka","taluk":"Bangalore North","districtname":"Bengaluru","statename":"KARNATAKA"},{"Pincode":560087,"divisionname":"Bengaluru East","regionname":"Bangalore HQ","circlename":"Karnataka","taluk":"Bangalore South","districtname":"Bengaluru","statename":"KARNATAKA"},{"Pincode":560090,"divisionname":"Bengaluru West","regionname":"Bangalore HQ","circlename":"Karnataka","taluk":"Bangalore North","districtname":"Bengaluru","statename":"KARNATAKA"},{"Pincode":560091,"divisionname":"Bengaluru West","regionname":"Bangalore HQ","circlename":"Karnataka","taluk":"Bangalore North","districtname":"Bengaluru","statename":"KARNATAKA"},{"Pincode":560092,"divisionname":"Bengaluru East","regionname":"Bangalore HQ","circlename":"Karnataka","taluk":"Bangalore North","districtname":"Bengaluru","statename":"KARNATAKA"},{"Pincode":560094,"divisionname":"Bengaluru East","regionname":"Bangalore HQ","circlename":"Karnataka","taluk":"Bangalore North","districtname":"Bengaluru","statename":"KARNATAKA"},{"Pincode":560095,"divisionname":"Bengaluru South","regionname":"Bangalore HQ","circlename":"Karnataka","taluk":"Bangalore South","districtname":"Bengaluru","statename":"KARNATAKA"},{"Pincode":560096,"divisionname":"Bengaluru West","regionname":"Bangalore HQ","circlename":"Karnataka","taluk":"Bangalore North","districtname":"Bengaluru","statename":"KARNATAKA"},{"Pincode":560097,"divisionname":"Bengaluru West","regionname":"Bangalore HQ","circlename":"Karnataka","taluk":"Bangalore North","districtname":"Bengaluru","statename":"KARNATAKA"},{"Pincode":560098,"divisionname":"Bengaluru South","regionname":"Bangalore HQ","circlename":"Karnataka","taluk":"Bangalore South","districtname":"Bengaluru","statename":"KARNATAKA"},{"Pincode":560099,"divisionname":"Bengaluru South","regionname":"Bangalore HQ","circlename":"Karnataka","taluk":"Bangalore South","districtname":"Bengaluru","statename":"KARNATAKA"},{"Pincode":560100,"divisionname":"Bengaluru South","regionname":"Bangalore HQ","circlename":"Karnataka","taluk":"Bangalore South","districtname":"Bengaluru","statename":"KARNATAKA"},{"Pincode":560102,"divisionname":"Bengaluru South","regionname":"Bangalore HQ","circlename":"Karnataka","taluk":"Bangalore South","districtname":"Bengaluru","statename":"KARNATAKA"},{"Pincode":560103,"divisionname":"Bengaluru East","regionname":"Bangalore HQ","circlename":"Karnataka","taluk":"Bellandur","districtname":"Bengaluru","statename":"KARNATAKA"},{"Pincode":560104,"divisionname":"Bengaluru West","regionname":"Bangalore HQ","circlename":"Karnataka","taluk":"Bangalore North","districtname":"Bengaluru","statename":"KARNATAKA"},{"Pincode":560105,"divisionname":"Bengaluru South","regionname":"Bangalore HQ","circlename":"Karnataka","taluk":"Anekal","districtname":"Bengaluru","statename":"KARNATAKA"},{"Pincode":560108,"divisionname":"Bengaluru South","regionname":"Bangalore HQ","circlename":"Karnataka","taluk":"Bangalore","districtname":"Bengaluru","statename":"KARNATAKA"},{"Pincode":560109,"divisionname":"Bengaluru South","regionname":"Bangalore HQ","circlename":"Karnataka","taluk":"Bangalore South","districtname":"Bengaluru","statename":"KARNATAKA"},{"Pincode":560110,"divisionname":"Bengaluru South","regionname":"Bangalore HQ","circlename":"Karnataka","taluk":"Bangalore","districtname":"Bengaluru","statename":"KARNATAKA"},{"Pincode":560111,"divisionname":"Bengaluru South","regionname":"Bangalore HQ","circlename":"Karnataka","taluk":"Bangalore South","districtname":"Bengaluru","statename":"KARNATAKA"},{"Pincode":560112,"divisionname":"Bengaluru West","regionname":"Bangalore HQ","circlename":"Karnataka","taluk":"Bangalore","districtname":"Bengaluru","statename":"KARNATAKA"},{"Pincode":560113,"divisionname":"Bengaluru East","regionname":"Bangalore HQ","circlename":"Karnataka","taluk":"Bangalore North","districtname":"Bengaluru","statename":"KARNATAKA"},{"Pincode":560114,"divisionname":"Bengaluru South","regionname":"Bangalore HQ","circlename":"Karnataka","taluk":"Bangalore","districtname":"Bengaluru","statename":"KARNATAKA"},{"Pincode":560115,"divisionname":"Bengaluru East","regionname":"Bangalore HQ","circlename":"Karnataka","taluk":"Hosakote","districtname":"Bengaluru","statename":"KARNATAKA"},{"Pincode":560116,"divisionname":"Bengaluru South","regionname":"Bangalore HQ","circlename":"Karnataka","taluk":"Bengaluru","districtname":"Bengaluru","statename":"KARNATAKA"},{"Pincode":560116,"divisionname":"Bengaluru South","regionname":"Bangalore HQ","circlename":"Karnataka","taluk":"Bangalore South","districtname":"Bengaluru","statename":"KARNATAKA"},{"Pincode":560117,"divisionname":"Bengaluru East","regionname":"Bangalore HQ","circlename":"Karnataka","taluk":"Hosakote","districtname":"Bengaluru","statename":"KARNATAKA"},{"Pincode":560300,"divisionname":"Bengaluru East","regionname":"Bangalore HQ","circlename":"Karnataka","taluk":"NA","districtname":"Bengaluru","statename":"KARNATAKA"},{"Pincode":560500,"divisionname":"Bengaluru South","regionname":"Bangalore HQ","circlename":"Karnataka","taluk":"Bengaluru","districtname":"Bengaluru","statename":"KARNATAKA"},{"Pincode":562106,"divisionname":"Channapatna","regionname":"Bangalore HQ","circlename":"Karnataka","taluk":"Anekal","districtname":"Bengaluru","statename":"KARNATAKA"},{"Pincode":562107,"divisionname":"Channapatna","regionname":"Bangalore HQ","circlename":"Karnataka","taluk":"Anekal","districtname":"Bengaluru","statename":"KARNATAKA"},{"Pincode":562125,"divisionname":"Channapatna","regionname":"Bangalore HQ","circlename":"Karnataka","taluk":"Anekal","districtname":"Bengaluru","statename":"KARNATAKA"},{"Pincode":562130,"divisionname":"Channapatna","regionname":"Bangalore HQ","circlename":"Karnataka","taluk":"Bangaloresouth","districtname":"Bengaluru","statename":"KARNATAKA"},{"Pincode":562130,"divisionname":"Channapatna","regionname":"Bangalore HQ","circlename":"Karnataka","taluk":"Bgsouth","districtname":"Bengaluru","statename":"KARNATAKA"},{"Pincode":562130,"divisionname":"Channapatna","regionname":"Bangalore HQ","circlename":"Karnataka","taluk":"Bg South","districtname":"Bengaluru","statename":"KARNATAKA"},{"Pincode":562130,"divisionname":"Channapatna","regionname":"Bangalore HQ","circlename":"Karnataka","taluk":"Nla & Bgsouth","districtname":"Bengaluru","statename":"KARNATAKA"},{"Pincode":562149,"divisionname":"Channapatna","regionname":"Bangalore HQ","circlename":"Karnataka","taluk":"Banglorenorth","districtname":"Bengaluru","statename":"KARNATAKA"},{"Pincode":562149,"divisionname":"Channapatna","regionname":"Bangalore HQ","circlename":"Karnataka","taluk":"Bgnorth","districtname":"Bengaluru","statename":"KARNATAKA"},{"Pincode":562149,"divisionname":"Channapatna","regionname":"Bangalore HQ","circlename":"Karnataka","taluk":"Bg North","districtname":"Bengaluru","statename":"KARNATAKA"},{"Pincode":562157,"divisionname":"Channapatna","regionname":"Bangalore HQ","circlename":"Karnataka","taluk":"Bangalore North","districtname":"Bengaluru","statename":"KARNATAKA"},{"Pincode":562157,"divisionname":"Channapatna","regionname":"Bangalore HQ","circlename":"Karnataka","taluk":"Bg North","districtname":"Bengaluru","statename":"KARNATAKA"},{"Pincode":562162,"divisionname":"Channapatna","regionname":"Bangalore HQ","circlename":"Karnataka","taluk":"Bangalore North","districtname":"Bengaluru","statename":"KARNATAKA"},{"Pincode":562164,"divisionname":"Channapatna","regionname":"Bangalore HQ","circlename":"Karnataka","taluk":"Devanahalli","districtname":"Bengaluru","statename":"KARNATAKA"}]